ONEWEB-0210             
1 48787U 21045W   25273.64445678  .00000064  00000+0  13547-3 0  9991
2 48787  87.9011 310.9660 0001113 101.5222 258.6034 13.15548488210194
ONEWEB-0214             
1 48788U 21045X   25273.57710849 -.00000018  00000+0 -81802-4 0  9990
2 48788  87.9007 310.9668 0001410  92.2200 267.9092 13.15549763210150
ONEWEB-0221             
1 48789U 21045Y   25273.58424887 -.00000069  00000+0 -21639-3 0  9993
2 48789  87.8996 310.9902 0001684 100.4784 259.6536 13.15547532210243
ONEWEB-0213             
1 48790U 21045Z   25273.57314735 -.00000254  00000+0 -70800-3 0  9994
2 48790  87.9002 311.0012 0001588  96.5023 263.6288 13.15547709210304
ONEWEB-0212             
1 48791U 21045AA  25273.39806547  .00000182  00000+0  44853-3 0  9999
2 48791  87.9003 311.0194 0001869  95.0099 265.1245 13.15549852210273
ONEWEB-0227             
1 48792U 21045AB  25273.47334157  .00000079  00000+0  17520-3 0  9998
2 48792  87.8995 311.0220 0001749  98.7613 261.3716 13.15546569210231
ONEWEB-0226             
1 48793U 21045AC  25273.61910354 -.00000063  00000+0 -20186-3 0  9991
2 48793  87.8997 311.0007 0001459  98.0619 262.0677 13.15547844210224
ONEWEB-0224             
1 48794U 21045AD  25273.58267509 -.00000063  00000+0 -20096-3 0  9995
2 48794  87.8997 311.0432 0002367 117.7976 242.3395 13.15548321210141
